H1 CPF 01  gfz 2022 06 29 00  6793 terrasarx 
H2 0702601  6201 31698    2022 06 28 12 59 42 2022 07 03 00 00 42   120 1 1  0 0 0
H9
10 0 59759  26622.000000  0    2888781.857   -211449.285   6239649.800
10 0 59759  26742.000000  0    3622140.072   -578393.458   5820716.200
10 0 59759  26862.000000  0    4285812.715   -947464.185   5299424.440
10 0 59759  26982.000000  0    4868213.309  -1310889.555   4684905.816
10 0 59759  27102.000000  0    5359304.451  -1660802.414   3987940.438
10 0 59759  27222.000000  0    5750779.875  -1989407.884   3220771.830
10 0 59759  27342.000000  0    6036214.110  -2289154.449   2396892.691
10 0 59759  27462.000000  0    6211175.518  -2552903.422   1530805.713
10 0 59759  27582.000000  0    6273301.071  -2774092.594    637764.086
10 0 59759  27702.000000  0    6222329.553  -2946890.711   -266504.876
10 0 59759  27822.000000  0    6060092.239  -3066337.995  -1166085.248
10 0 59759  27942.000000  0    5790460.380  -3128469.073  -2045162.580
10 0 59759  28062.000000  0    5419251.255  -3130414.905  -2888308.922
10 0 59759  28182.000000  0    4954097.627  -3070481.842  -3680758.506
10 0 59759  28302.000000  0    4404282.885  -2948206.524  -4408667.813
10 0 59759  28422.000000  0    3780546.799  -2764385.494  -5059356.044
10 0 59759  28542.000000  0    3094866.138  -2521078.069  -5621519.881
10 0 59759  28662.000000  0    2360218.761  -2221584.388  -6085419.505
10 0 59759  28782.000000  0    1590335.928  -1870400.252  -6443037.531
10 0 59759  28902.000000  0     799444.282  -1473147.239  -6688207.882
10 0 59759  29022.000000  0       2004.696  -1036481.240  -6816710.972
10 0 59759  29142.000000  0    -787547.375   -567981.697  -6826337.876
10 0 59759  29262.000000  0   -1555056.874    -76022.770  -6716923.932
10 0 59759  29382.000000  0   -2286897.356    430372.945  -6490350.693
10 0 59759  29502.000000  0   -2970207.113    941695.262  -6150516.500
10 0 59759  29622.000000  0   -3593111.134   1448120.166  -5703277.223
10 0 59759  29742.000000  0   -4144927.758   1939694.031  -5156356.560
10 0 59759  29862.000000  0   -4616355.904   2406526.544  -4519224.366
10 0 59759  29982.000000  0   -4999638.052   2838988.636  -3802942.781
10 0 59759  30102.000000  0   -5288695.567   3227909.804  -3019983.547
10 0 59759  30222.000000  0   -5479235.064   3564772.900  -2184018.251
10 0 59759  30342.000000  0   -5568820.751   3841901.403  -1309682.492
10 0 59759  30462.000000  0   -5556911.261   4052633.192   -412318.434
10 0 59759  30582.000000  0   -5444858.743   4191477.085    492298.950
10 0 59759  30702.000000  0   -5235869.698   4254247.859   1388247.756
10 0 59759  30822.000000  0   -4934926.456   4238174.131   2259748.945
10 0 59759  30942.000000  0   -4548673.117   4141977.773   3091452.544
10 0 59759  31062.000000  0   -4085269.088   3965923.927   3868715.563
10 0 59759  31182.000000  0   -3554213.484   3711837.977   4577865.133
10 0 59759  31302.000000  0   -2966145.926   3383090.972   5206441.329
10 0 59759  31422.000000  0   -2332627.553   2984553.607   5743415.616
10 0 59759  31542.000000  0   -1665908.500   2522520.519   6179381.149
10 0 59759  31662.000000  0    -978686.221   2004606.301   6506712.106
10 0 59759  31782.000000  0    -283861.809   1439616.062   6719689.011
10 0 59759  31902.000000  0     405701.622    837393.654   6814593.440
10 0 59759  32022.000000  0    1077416.804    208649.329   6789768.505
10 0 59759  32142.000000  0    1719200.812   -435229.952   6645645.937
10 0 59759  32262.000000  0    2319691.638  -1082386.170   6384739.822
10 0 59759  32382.000000  0    2868449.438  -1720707.749   6011605.993
10 0 59759  32502.000000  0    3356140.545  -2338056.194   5532768.125
10 0 59759  32622.000000  0    3774699.632  -2922497.881   4956609.144
10 0 59759  32742.000000  0    4117467.648  -3462536.874   4293230.566
10 0 59759  32862.000000  0    4379302.743  -3947344.813   3554279.886
10 0 59759  32982.000000  0    4556661.831  -4366982.639   2752748.476
10 0 59759  33102.000000  0    4647650.938  -4712608.799   1902742.286
10 0 59759  33222.000000  0    4652041.684  -4976668.103   1019229.481
10 0 59759  33342.000000  0    4571253.374  -5153057.473    117770.593
10 0 59759  33462.000000  0    4408301.223  -5237263.255   -785763.105
10 0 59759  33582.000000  0    4167713.693  -5226467.724  -1675477.832
10 0 59759  33702.000000  0    3855417.880  -5119620.523  -2535745.687
10 0 59759  33822.000000  0    3478598.224  -4917474.163  -3351485.458
10 0 59759  33942.000000  0    3045531.789  -4622582.686  -4108430.466
10 0 59759  34062.000000  0    2565404.950  -4239265.495  -4793378.130
10 0 59759  34182.000000  0    2048115.904  -3773535.601  -5394416.387
10 0 59759  34302.000000  0    1504069.254  -3232996.334  -5901121.681
10 0 59759  34422.000000  0     943967.090  -2626711.315  -6304729.416
10 0 59759  34542.000000  0     378599.410  -1965048.079  -6598275.370
10 0 59759  34662.000000  0    -181361.292  -1259497.963  -6776705.071
10 0 59759  34782.000000  0    -725556.727   -522476.802  -6836951.088
10 0 59759  34902.000000  0   -1244129.166    232890.006  -6777979.490
10 0 59759  35022.000000  0   -1727895.998    992995.400  -6600804.926
10 0 59759  35142.000000  0   -2168508.439   1743989.564  -6308474.980
10 0 59759  35262.000000  0   -2558592.825   2472025.897  -5906023.633
10 0 59759  35382.000000  0   -2891874.040   3163512.113  -5400394.582
10 0 59759  35502.000000  0   -3163277.976   3805362.753  -4800333.025
10 0 59759  35622.000000  0   -3369012.492   4385248.893  -4116245.764
10 0 59759  35742.000000  0   -3506623.032   4891839.196  -3360029.462
10 0 59759  35862.000000  0   -3575021.255   5315026.284  -2544871.221
10 0 59759  35982.000000  0   -3574488.201   5646135.691  -1685024.638
10 0 59759  36102.000000  0   -3506649.923   5878112.538   -795561.720
10 0 59759  36222.000000  0   -3374424.445   6005678.188    107894.921
10 0 59759  36342.000000  0   -3181943.847   6025453.106   1009451.676
10 0 59759  36462.000000  0   -2934450.356   5936043.595   1893233.716
10 0 59759  36582.000000  0   -2638167.390   5738086.503   2743675.232
10 0 59759  36702.000000  0   -2300151.788   5434251.328   3545801.680
10 0 59759  36822.000000  0   -1928131.641   5029202.217   4285498.797
10 0 59759  36942.000000  0   -1530333.260   4529520.592   4949764.140
10 0 59759  37062.000000  0   -1115300.733   3943590.746   5526936.562
10 0 59759  37182.000000  0    -691713.257   3281450.294   6006898.251
10 0 59759  37302.000000  0    -268205.094   2554610.092   6381247.306
10 0 59759  37422.000000  0     146808.946   1775848.307   6643438.293
10 0 59759  37542.000000  0     545299.357    958982.264   6788891.390
10 0 59759  37662.000000  0     919776.189    118621.130   6815066.625
10 0 59759  37782.000000  0    1263428.615   -730094.211   6721505.449
10 0 59759  37902.000000  0    1570248.286  -1571763.543   6509839.260
10 0 59759  38022.000000  0    1835134.651  -2391006.039   6183762.972
10 0 59759  38142.000000  0    2053980.425  -3172742.165   5748975.200
10 0 59759  38262.000000  0    2223736.013  -3902473.779   5213083.885
10 0 59759  38382.000000  0    2342451.257  -4566556.470   4585478.366
10 0 59759  38502.000000  0    2409294.945  -5152460.231   3877170.812
10 0 59759  38622.000000  0    2424551.658  -5649014.223   3100606.223
10 0 59759  38742.000000  0    2389593.141  -6046628.727   2269444.296
10 0 59759  38862.000000  0    2306826.816  -6337488.055   1398316.366
10 0 59759  38982.000000  0    2179622.877  -6515709.574    502563.764
10 0 59759  39102.000000  0    2012220.688  -6577468.069   -402038.403
10 0 59759  39222.000000  0    1809617.260  -6521079.383  -1299569.132
10 0 59759  39342.000000  0    1577437.970  -6347037.991  -2174251.883
10 0 59759  39462.000000  0    1321795.725  -6058011.955  -3010738.996
10 0 59759  39582.000000  0    1049142.407  -5658791.629  -3794386.534
10 0 59759  39702.000000  0     766117.443  -5156198.578  -4511510.864
10 0 59759  39822.000000  0     479395.059  -4558956.664  -5149624.909
10 0 59759  39942.000000  0     195535.005  -3877529.128  -5697649.015
10 0 59759  40062.000000  0     -79160.118  -3123925.368  -6146094.370
10 0 59759  40182.000000  0    -338777.914  -2311482.371  -6487216.118
10 0 59759  40302.000000  0    -577917.335  -1454625.550  -6715135.587
10 0 59759  40422.000000  0    -791795.832   -568613.685  -6825931.572
10 0 59759  40542.000000  0    -976340.757    330729.395  -6817700.667
10 0 59759  40662.000000  0   -1128264.280   1227290.898  -6690585.096
10 0 59759  40782.000000  0   -1245120.615   2104950.261  -6446770.438
10 0 59759  40902.000000  0   -1325344.604   2947861.526  -6090452.352
10 0 59759  41022.000000  0   -1368271.816   3740735.338  -5627773.609
10 0 59759  41142.000000  0   -1374139.284   4469114.916  -5066728.221
10 0 59759  41262.000000  0   -1344067.022   5119642.281  -4417035.268
10 0 59759  41382.000000  0   -1280020.574   5680309.843  -3689980.648
10 0 59759  41502.000000  0   -1184754.412   6140690.564  -2898229.074
10 0 59759  41622.000000  0   -1061737.448   6492142.532  -2055609.935
10 0 59759  41742.000000  0    -915061.985   6727983.802  -1176877.968
10 0 59759  41862.000000  0    -749338.278   6843630.320   -277453.779
10 0 59759  41982.000000  0    -569576.394   6836695.675    626850.941
10 0 59759  42102.000000  0    -381058.694   6707047.522   1520119.973
10 0 59759  42222.000000  0    -189206.448   6456816.087   2386623.411
10 0 59759  42342.000000  0        555.589   6090355.861   3211102.600
10 0 59759  42462.000000  0     182933.577   5614164.710   3979044.459
10 0 59759  42582.000000  0     352894.753   5036763.840   4676942.420
10 0 59759  42702.000000  0     505790.349   4368532.361   5292539.689
10 0 59759  42822.000000  0     637467.856   3621508.588   5815038.764
10 0 59759  42942.000000  0     744370.869   2809166.542   6235287.783
10 0 59759  43062.000000  0     823622.845   1946165.058   6545935.585
99
